{"type": "FeatureCollection", "features": [ {"type": "Feature", "properties": {"norad_id": 32384, "name": "GPS BIIRM-5 (PRN 29)", "group": "gps-ops", "lat": -52.41013373927165, "lon": -143.10028322617072, "alt_km": 20233.078083952612, "timestamp": "2025-12-17T10:52:54.611933+00:00", "meta": {"OBJECT_NAME": "GPS BIIRM-5 (PRN 29)", "OBJECT_ID": "2007-062A", "EPOCH": "2025-12-16T07:14:28.728960", "MEAN_MOTION": 2.00577559, "ECCENTRICITY": 0.00322451, "INCLINATION": 55.1791, "RA_OF_ASC_NODE": 281.5031, "ARG_OF_PERICENTER": 162.3169, "MEAN_ANOMALY": 10.9325, "EPHEMERIS_TYPE": 0, "CLASSIFICATION_TYPE": "U", "NORAD_CAT_ID": 32384, "ELEMENT_SET_NO": 999, "REV_AT_EPOCH": 13184, "BSTAR": 0, "MEAN_MOTION_DOT": -6.6e-07, "MEAN_MOTION_DDOT": 0}, "tle": {"line1": "1 32384U 07062A   25350.30172140 -.00000066  00000+0  00000+0 0  9999", "line2": "2 32384  55.1791 281.5031 0032245 162.3169  10.9325  2.00577559131841"}}, "geometry": {"type": "Point", "coordinates": [-143.10028322617072, -52.41013373927165]}}, {"type": "Feature", "properties": {"norad_id": 32711, "name": "GPS BIIRM-6 (PRN 07)", "group": "gps-ops", "lat": -22.23815701398619, "lon": -5.833791226863171, "alt_km": 19753.305047564572, "timestamp": "2025-12-17T10:52:54.611944+00:00", "meta": {"OBJECT_NAME": "GPS BIIRM-6 (PRN 07)", "OBJECT_ID": "2008-012A", "EPOCH": "2025-12-16T03:55:52.800384", "MEAN_MOTION": 2.00565827, "ECCENTRICITY": 0.0202594, "INCLINATION": 54.4775, "RA_OF_ASC_NODE": 157.2362, "ARG_OF_PERICENTER": 244.9852, "MEAN_ANOMALY": 112.9072, "EPHEMERIS_TYPE": 0, "CLASSIFICATION_TYPE": "U", "NORAD_CAT_ID": 32711, "ELEMENT_SET_NO": 999, "REV_AT_EPOCH": 13008, "BSTAR": 0, "MEAN_MOTION_DOT": 8.9e-07, "MEAN_MOTION_DDOT": 0}, "tle": {"line1": "1 32711U 08012A   25350.16380556  .00000089  00000+0  00000+0 0  9999", "line2": "2 32711  54.4775 157.2362 0202594 244.9852 112.9072  2.00565827130089"}}, "geometry": {"type": "Point", "coordinates": [-5.833791226863171, -22.23815701398619]}}, {"type": "Feature", "properties": {"norad_id": 35752, "name": "GPS BIIRM-8 (PRN 05)", "group": "gps-ops", "lat": -39.00843569205057, "lon": -112.40087378295625, "alt_km": 20302.5671198054, "timestamp": "2025-12-17T10:52:54.611955+00:00", "meta": {"OBJECT_NAME": "GPS BIIRM-8 (PRN 05)", "OBJECT_ID": "2009-043A", "EPOCH": "2025-12-15T22:20:02.106816", "MEAN_MOTION": 2.00565586, "ECCENTRICITY": 0.00517182, "INCLINATION": 56.0932, "RA_OF_ASC_NODE": 34.6571, "ARG_OF_PERICENTER": 81.8462, "MEAN_ANOMALY": 127.6063, "EPHEMERIS_TYPE": 0, "CLASSIFICATION_TYPE": "U", "NORAD_CAT_ID": 35752, "ELEMENT_SET_NO": 999, "REV_AT_EPOCH": 11968, "BSTAR": 0, "MEAN_MOTION_DOT": -8.6e-07, "MEAN_MOTION_DDOT": 0}, "tle": {"line1": "1 35752U 09043A   25349.93057994 -.00000086  00000+0  00000+0 0  9990", "line2": "2 35752  56.0932  34.6571 0051718  81.8462 127.6063  2.00565586119683"}}, "geometry": {"type": "Point", "coordinates": [-112.40087378295625, -39.00843569205057]}}, {"type": "Feature", "properties": {"norad_id": 36585, "name": "GPS BIIF-1  (PRN 25)", "group": "gps-ops", "lat": -11.550783103399636, "lon": -152.55158000076642, "alt_km": 20118.731058871992, "timestamp": "2025-12-17T10:52:54.611968+00:00", "meta": {"OBJECT_NAME": "GPS BIIF-1  (PRN 25)", "OBJECT_ID": "2010-022A", "EPOCH": "2025-12-16T01:01:22.883808", "MEAN_MOTION": 2.00553454, "ECCENTRICITY": 0.01262565, "INCLINATION": 54.2996, "RA_OF_ASC_NODE": 215.9407, "ARG_OF_PERICENTER": 65.1133, "MEAN_ANOMALY": 343.5127, "EPHEMERIS_TYPE": 0, "CLASSIFICATION_TYPE": "U", "NORAD_CAT_ID": 36585, "ELEMENT_SET_NO": 999, "REV_AT_EPOCH": 11392, "BSTAR": 0, "MEAN_MOTION_DOT": 7.2e-07, "MEAN_MOTION_DDOT": 0}, "tle": {"line1": "1 36585U 10022A   25350.04262597  .00000072  00000+0  00000+0 0  9999", "line2": "2 36585  54.2996 215.9407 0126256  65.1133 343.5127  2.00553454113922"}}, "geometry": {"type": "Point", "coordinates": [-152.55158000076642, -11.550783103399636]}}, {"type": "Feature", "properties": {"norad_id": 38833, "name": "GPS BIIF-3  (PRN 24)", "group": "gps-ops", "lat": 53.31005965618861, "lon": -126.22972156472365, "alt_km": 19740.280383082518, "timestamp": "2025-12-17T10:52:54.611979+00:00", "meta": {"OBJECT_NAME": "GPS BIIF-3  (PRN 24)", "OBJECT_ID": "2012-053A", "EPOCH": "2025-12-15T20:13:20.824032", "MEAN_MOTION": 2.00565066, "ECCENTRICITY": 0.01759247, "INCLINATION": 53.5583, "RA_OF_ASC_NODE": 151.1115, "ARG_OF_PERICENTER": 64.0399, "MEAN_ANOMALY": 297.7616, "EPHEMERIS_TYPE": 0, "CLASSIFICATION_TYPE": "U", "NORAD_CAT_ID": 38833, "ELEMENT_SET_NO": 999, "REV_AT_EPOCH": 9576, "BSTAR": 0, "MEAN_MOTION_DOT": 8e-07, "MEAN_MOTION_DDOT": 0}, "tle": {"line1": "1 38833U 12053A   25349.84260213  .00000080  00000+0  00000+0 0  9991", "line2": "2 38833  53.5583 151.1115 0175924  64.0399 297.7616  2.00565066 95765"}}, "geometry": {"type": "Point", "coordinates": [-126.22972156472365, 53.31005965618861]}}, {"type": "Feature", "properties": {"norad_id": 39166, "name": "GPS BIIF-4  (PRN 27)", "group": "gps-ops", "lat": -2.961865779372492, "lon": 98.46274237630024, "alt_km": 20439.274503743065, "timestamp": "2025-12-17T10:52:54.611991+00:00", "meta": {"OBJECT_NAME": "GPS BIIF-4  (PRN 27)", "OBJECT_ID": "2013-023A", "EPOCH": "2025-12-15T04:59:33.811872", "MEAN_MOTION": 2.00564736, "ECCENTRICITY": 0.01378529, "INCLINATION": 54.65, "RA_OF_ASC_NODE": 276.4679, "ARG_OF_PERICENTER": 48.4851, "MEAN_ANOMALY": 312.7012, "EPHEMERIS_TYPE": 0, "CLASSIFICATION_TYPE": "U", "NORAD_CAT_ID": 39166, "ELEMENT_SET_NO": 999, "REV_AT_EPOCH": 9219, "BSTAR": 0, "MEAN_MOTION_DOT": -6.8e-07, "MEAN_MOTION_DDOT": 0}, "tle": {"line1": "1 39166U 13023A   25349.20803023 -.00000068  00000+0  00000+0 0  9998", "line2": "2 39166  54.6500 276.4679 0137852  48.4851 312.7012  2.00564736 92194"}}, "geometry": {"type": "Point", "coordinates": [98.46274237630024, -2.961865779372492]}}, {"type": "Feature", "properties": {"norad_id": 39533, "name": "GPS BIIF-5  (PRN 30)", "group": "gps-ops", "lat": -3.699505608179814, "lon": -20.544841596350015, "alt_km": 20024.862971152128, "timestamp": "2025-12-17T10:52:54.612002+00:00", "meta": {"OBJECT_NAME": "GPS BIIF-5  (PRN 30)", "OBJECT_ID": "2014-008A", "EPOCH": "2025-12-16T04:46:33.160224", "MEAN_MOTION": 2.00574644, "ECCENTRICITY": 0.00793151, "INCLINATION": 53.6318, "RA_OF_ASC_NODE": 156.7835, "ARG_OF_PERICENTER": 226.5644, "MEAN_ANOMALY": 132.7818, "EPHEMERIS_TYPE": 0, "CLASSIFICATION_TYPE": "U", "NORAD_CAT_ID": 39533, "ELEMENT_SET_NO": 999, "REV_AT_EPOCH": 8601, "BSTAR": 0, "MEAN_MOTION_DOT": 8.7e-07, "MEAN_MOTION_DDOT": 0}, "tle": {"line1": "1 39533U 14008A   25350.19899491  .00000087  00000+0  00000+0 0  9994", "line2": "2 39533  53.6318 156.7835 0079315 226.5644 132.7818  2.00574644 86017"}}, "geometry": {"type": "Point", "coordinates": [-20.544841596350015, -3.699505608179814]}}, {"type": "Feature", "properties": {"norad_id": 39741, "name": "GPS BIIF-6  (PRN 06)", "group": "gps-ops", "lat": -15.88778882571701, "lon": -32.24713406932498, "alt_km": 20088.027689941813, "timestamp": "2025-12-17T10:52:54.612013+00:00", "meta": {"OBJECT_NAME": "GPS BIIF-6  (PRN 06)", "OBJECT_ID": "2014-026A", "EPOCH": "2025-12-15T23:36:56.796480", "MEAN_MOTION": 2.00561228, "ECCENTRICITY": 0.00392671, "INCLINATION": 56.5823, "RA_OF_ASC_NODE": 338.6501, "ARG_OF_PERICENTER": 318.8752, "MEAN_ANOMALY": 40.8399, "EPHEMERIS_TYPE": 0, "CLASSIFICATION_TYPE": "U", "NORAD_CAT_ID": 39741, "ELEMENT_SET_NO": 999, "REV_AT_EPOCH": 8486, "BSTAR": 0, "MEAN_MOTION_DOT": -8.7e-07, "MEAN_MOTION_DDOT": 0}, "tle": {"line1": "1 39741U 14026A   25349.98399070 -.00000087  00000+0  00000+0 0  9999", "line2": "2 39741  56.5823 338.6501 0039267 318.8752  40.8399  2.00561228 84867"}}, "geometry": {"type": "Point", "coordinates": [-32.24713406932498, -15.88778882571701]}}, {"type": "Feature", "properties": {"norad_id": 40105, "name": "GPS BIIF-7  (PRN 09)", "group": "gps-ops", "lat": -54.355035843438394, "lon": 20.368283288022393, "alt_km": 20267.75596016888, "timestamp": "2025-12-17T10:52:54.612024+00:00", "meta": {"OBJECT_NAME": "GPS BIIF-7  (PRN 09)", "OBJECT_ID": "2014-045A", "EPOCH": "2025-12-15T01:46:50.034144", "MEAN_MOTION": 2.00572752, "ECCENTRICITY": 0.00326343, "INCLINATION": 55.2306, "RA_OF_ASC_NODE": 95.8057, "ARG_OF_PERICENTER": 119.9544, "MEAN_ANOMALY": 240.3532, "EPHEMERIS_TYPE": 0, "CLASSIFICATION_TYPE": "U", "NORAD_CAT_ID": 40105, "ELEMENT_SET_NO": 999, "REV_AT_EPOCH": 8238, "BSTAR": 0, "MEAN_MOTION_DOT": -3.6e-07, "MEAN_MOTION_DDOT": 0}, "tle": {"line1": "1 40105U 14045A   25349.07419021 -.00000036  00000+0  00000+0 0  9999", "line2": "2 40105  55.2306  95.8057 0032634 119.9544 240.3532  2.00572752 82388"}}, "geometry": {"type": "Point", "coordinates": [20.368283288022393, -54.355035843438394]}}, {"type": "Feature", "properties": {"norad_id": 40294, "name": "GPS BIIF-8  (PRN 03)", "group": "gps-ops", "lat": 5.062941051355918, "lon": 41.29867289262872, "alt_km": 20107.47303720837, "timestamp": "2025-12-17T10:52:54.612035+00:00", "meta": {"OBJECT_NAME": "GPS BIIF-8  (PRN 03)", "OBJECT_ID": "2014-068A", "EPOCH": "2025-12-16T10:44:59.348832", "MEAN_MOTION": 2.00565206, "ECCENTRICITY": 0.00607873, "INCLINATION": 56.8606, "RA_OF_ASC_NODE": 38.0026, "ARG_OF_PERICENTER": 69.1046, "MEAN_ANOMALY": 291.6035, "EPHEMERIS_TYPE": 0, "CLASSIFICATION_TYPE": "U", "NORAD_CAT_ID": 40294, "ELEMENT_SET_NO": 999, "REV_AT_EPOCH": 8154, "BSTAR": 0, "MEAN_MOTION_DOT": -8.2e-07, "MEAN_MOTION_DDOT": 0}, "tle": {"line1": "1 40294U 14068A   25350.44790913 -.00000082  00000+0  00000+0 0  9999", "line2": "2 40294  56.8606  38.0026 0060787  69.1046 291.6035  2.00565206 81545"}}, "geometry": {"type": "Point", "coordinates": [41.29867289262872, 5.062941051355918]}}]}